start=new Date('2022-10-10T00:00:00.000Z').valueOf();
sats=[{"TLE_LINE1":"1 52556U 22051Z   22282.86376748  .00024763  00000-0  15413-2 0  9996","SEMIMAJOR_AXIS":"6915.923","ARG_OF_PERICENTER":"65.7556","OBJECT_NAME":"STARLINK-3763","OBJECT_ID":"2022-051Z","COUNTRY_CODE":"US","REV_AT_EPOCH":"2314","DECAY_DATE":null,"RCS_SIZE":"LARGE","INCLINATION":"53.2169","OBJECT_TYPE":"PAYLOAD","EPHEMERIS_TYPE":"0","BSTAR":"0.00154130000000","REF_FRAME":"TEME","PERIOD":"95.397","SITE":"AFWTR","EPOCH":"2022-10-09T20:43:49.510272","NORAD_CAT_ID":"52556","FILE":"3598879","ECCENTRICITY":"0.00024020","TIME_SYSTEM":"UTC","TLE_LINE2":"2 52556  53.2169 331.3197 0002402  65.7556 294.3687 15.09480765 23144","MEAN_MOTION_DOT":"0.00024763","LAUNCH_DATE":"2022-05-13","CLASSIFICATION_TYPE":"U","ELEMENT_SET_NO":"999","MEAN_ANOMALY":"294.3687","MEAN_ELEMENT_THEORY":"SGP4","MEAN_MOTION":"15.09480765","GP_ID":"214605820","CENTER_NAME":"EARTH","MEAN_MOTION_DDOT":"0.0000000000000","APOAPSIS":"539.449","RA_OF_ASC_NODE":"331.3197","PERIAPSIS":"536.126"},{"ELEMENT_SET_NO":"999","CLASSIFICATION_TYPE":"U","MEAN_ELEMENT_THEORY":"SGP4","MEAN_ANOMALY":"309.4128","EPOCH":"2022-10-09T19:32:37.565088","FILE":"3598879","NORAD_CAT_ID":"52557","ECCENTRICITY":"0.00018190","TIME_SYSTEM":"UTC","MEAN_MOTION_DOT":"0.00002018","LAUNCH_DATE":"2022-05-13","TLE_LINE2":"2 52557  53.2193 326.5617 0001819  50.7025 309.4128 15.08836616 23216","RA_OF_ASC_NODE":"326.5617","PERIAPSIS":"538.497","GP_ID":"214605563","MEAN_MOTION":"15.08836616","MEAN_MOTION_DDOT":"0.0000000000000","CENTER_NAME":"EARTH","APOAPSIS":"541.014","OBJECT_ID":"2022-051AA","COUNTRY_CODE":"US","REV_AT_EPOCH":"2321","DECAY_DATE":null,"TLE_LINE1":"1 52557U 22051AA  22282.81432367  .00002018  00000-0  14484-3 0  9999","OBJECT_NAME":"STARLINK-3943","SEMIMAJOR_AXIS":"6917.891","ARG_OF_PERICENTER":"50.7025","PERIOD":"95.438","SITE":"AFWTR","RCS_SIZE":"LARGE","OBJECT_TYPE":"PAYLOAD","INCLINATION":"53.2193","BSTAR":"0.00014484000000","EPHEMERIS_TYPE":"0","REF_FRAME":"TEME"},{"RA_OF_ASC_NODE":"316.5605","PERIAPSIS":"538.350","MEAN_MOTION":"15.08846946","GP_ID":"214606300","CENTER_NAME":"EARTH","MEAN_MOTION_DDOT":"0.0000000000000","APOAPSIS":"541.099","CLASSIFICATION_TYPE":"U","ELEMENT_SET_NO":"999","MEAN_ANOMALY":"314.5564","MEAN_ELEMENT_THEORY":"SGP4","EPOCH":"2022-10-09T19:33:57.090240","FILE":"3598879","NORAD_CAT_ID":"52558","TIME_SYSTEM":"UTC","ECCENTRICITY":"0.00019870","TLE_LINE2":"2 52558  53.2139 316.5605 0001987  45.5590 314.5564 15.08846946 23340","LAUNCH_DATE":"2022-05-13","MEAN_MOTION_DOT":"-0.00001386","PERIOD":"95.437","SITE":"AFWTR","RCS_SIZE":"LARGE","INCLINATION":"53.2139","OBJECT_TYPE":"PAYLOAD","EPHEMERIS_TYPE":"0","BSTAR":"-0.00006895700000","REF_FRAME":"TEME","OBJECT_ID":"2022-051AB","COUNTRY_CODE":"US","REV_AT_EPOCH":"2334","DECAY_DATE":null,"TLE_LINE1":"1 52558U 22051AB  22282.81524410 -.00001386  00000-0 -68957-4 0  9995","ARG_OF_PERICENTER":"45.5590","SEMIMAJOR_AXIS":"6917.859","OBJECT_NAME":"STARLINK-3954"},{"REV_AT_EPOCH":"2334","DECAY_DATE":null,"OBJECT_ID":"2022-051AC","COUNTRY_CODE":"US","TLE_LINE1":"1 52559U 22051AC  22282.80883957 -.00000321  00000-0 -20456-5 0  9990","OBJECT_NAME":"STARLINK-3953","SEMIMAJOR_AXIS":"6917.893","ARG_OF_PERICENTER":"51.8727","SITE":"AFWTR","PERIOD":"95.438","BSTAR":"-0.00000204560000","EPHEMERIS_TYPE":"0","REF_FRAME":"TEME","RCS_SIZE":"MEDIUM","OBJECT_TYPE":"PAYLOAD","INCLINATION":"53.2162","MEAN_ELEMENT_THEORY":"SGP4","MEAN_ANOMALY":"308.2421","ELEMENT_SET_NO":"999","CLASSIFICATION_TYPE":"U","TIME_SYSTEM":"UTC","FILE":"3598879","NORAD_CAT_ID":"52559","ECCENTRICITY":"0.00017210","MEAN_MOTION_DOT":"-0.00000321","LAUNCH_DATE":"2022-05-13","TLE_LINE2":"2 52559  53.2162 316.5820 0001721  51.8727 308.2421 15.08835972 23343","EPOCH":"2022-10-09T19:24:43.738848","PERIAPSIS":"538.567","RA_OF_ASC_NODE":"316.5820","MEAN_MOTION_DDOT":"0.0000000000000","CENTER_NAME":"EARTH","APOAPSIS":"540.948","GP_ID":"214605724","MEAN_MOTION":"15.08835972"},{"ARG_OF_PERICENTER":"51.9575","TLE_LINE1":"1 52560U 22051AD  22282.81157272  .00015084  00000-0  96302-3 0  9998","SEMIMAJOR_AXIS":"6917.791","OBJECT_NAME":"STARLINK-3956","COUNTRY_CODE":"US","OBJECT_ID":"2022-051AD","DECAY_DATE":null,"REV_AT_EPOCH":"2334","OBJECT_TYPE":"PAYLOAD","INCLINATION":"53.2163","RCS_SIZE":"LARGE","REF_FRAME":"TEME","BSTAR":"0.00096302000000","EPHEMERIS_TYPE":"0","PERIOD":"95.436","SITE":"AFWTR","EPOCH":"2022-10-09T19:28:39.883008","LAUNCH_DATE":"2022-05-13","MEAN_MOTION_DOT":"0.00015084","TLE_LINE2":"2 52560  53.2163 316.5742 0001906  51.9575 308.1589 15.08869197 23346","NORAD_CAT_ID":"52560","FILE":"3598879","TIME_SYSTEM":"UTC","ECCENTRICITY":"0.00019060","ELEMENT_SET_NO":"999","CLASSIFICATION_TYPE":"U","MEAN_ELEMENT_THEORY":"SGP4","MEAN_ANOMALY":"308.1589","GP_ID":"214605404","MEAN_MOTION":"15.08869197","APOAPSIS":"540.975","MEAN_MOTION_DDOT":"0.0000000000000","CENTER_NAME":"EARTH","RA_OF_ASC_NODE":"316.5742","PERIAPSIS":"538.338"},{"EPOCH":"2022-10-09T20:38:11.817600","FILE":"3598879","TIME_SYSTEM":"UTC","NORAD_CAT_ID":"52561","ECCENTRICITY":"0.00020160","MEAN_MOTION_DOT":"0.00007328","LAUNCH_DATE":"2022-05-13","TLE_LINE2":"2 52561  53.2157 331.3723 0002016  40.3728 319.7414 15.08854846 23147","ELEMENT_SET_NO":"999","CLASSIFICATION_TYPE":"U","MEAN_ELEMENT_THEORY":"SGP4","MEAN_ANOMALY":"319.7414","GP_ID":"214605981","MEAN_MOTION":"15.08854846","MEAN_MOTION_DDOT":"0.0000000000000","CENTER_NAME":"EARTH","APOAPSIS":"541.095","RA_OF_ASC_NODE":"331.3723","PERIAPSIS":"538.305","TLE_LINE1":"1 52561U 22051AE  22282.85985900  .00007328  00000-0  47781-3 0  9999","SEMIMAJOR_AXIS":"6917.835","OBJECT_NAME":"STARLINK-3955","ARG_OF_PERICENTER":"40.3728","OBJECT_ID":"2022-051AE","COUNTRY_CODE":"US","REV_AT_EPOCH":"2314","DECAY_DATE":null,"RCS_SIZE":"LARGE","OBJECT_TYPE":"PAYLOAD","INCLINATION":"53.2157","BSTAR":"0.00047781000000","EPHEMERIS_TYPE":"0","REF_FRAME":"TEME","PERIOD":"95.437","SITE":"AFWTR"},{"OBJECT_ID":"2022-051AF","COUNTRY_CODE":"US","REV_AT_EPOCH":"2329","DECAY_DATE":null,"OBJECT_NAME":"STARLINK-3957","TLE_LINE1":"1 52562U 22051AF  22282.47300391  .00000532  00000-0  51535-4 0  9996","SEMIMAJOR_AXIS":"6917.882","ARG_OF_PERICENTER":"39.0409","PERIOD":"95.438","SITE":"AFWTR","RCS_SIZE":"LARGE","OBJECT_TYPE":"PAYLOAD","INCLINATION":"53.2173","BSTAR":"0.00005153500000","EPHEMERIS_TYPE":"0","REF_FRAME":"TEME","ELEMENT_SET_NO":"999","CLASSIFICATION_TYPE":"U","MEAN_ELEMENT_THEORY":"SGP4","MEAN_ANOMALY":"321.0727","EPOCH":"2022-10-09T11:21:07.537824","FILE":"3597861","TIME_SYSTEM":"UTC","NORAD_CAT_ID":"52562","ECCENTRICITY":"0.00019980","LAUNCH_DATE":"2022-05-13","MEAN_MOTION_DOT":"0.00000532","TLE_LINE2":"2 52562  53.2173 318.0853 0001998  39.0409 321.0727 15.08839442 23295","RA_OF_ASC_NODE":"318.0853","PERIAPSIS":"538.365","GP_ID":"214563080","MEAN_MOTION":"15.08839442","MEAN_MOTION_DDOT":"0.0000000000000","CENTER_NAME":"EARTH","APOAPSIS":"541.129"},{"FILE":"3598879","NORAD_CAT_ID":"52563","TIME_SYSTEM":"UTC","ECCENTRICITY":"0.00020940","TLE_LINE2":"2 52563  53.2169 331.3491 0002094  44.4663 315.6497 15.08862195 23145","LAUNCH_DATE":"2022-05-13","MEAN_MOTION_DOT":"0.00000120","EPOCH":"2022-10-09T20:43:29.506080","MEAN_ANOMALY":"315.6497","MEAN_ELEMENT_THEORY":"SGP4","CLASSIFICATION_TYPE":"U","ELEMENT_SET_NO":"999","CENTER_NAME":"EARTH","MEAN_MOTION_DDOT":"0.0000000000000","APOAPSIS":"541.126","MEAN_MOTION":"15.08862195","GP_ID":"214606142","PERIAPSIS":"538.229","RA_OF_ASC_NODE":"331.3491","TLE_LINE1":"1 52563U 22051AG  22282.86353595  .00000120  00000-0  25630-4 0  9994","OBJECT_NAME":"STARLINK-3942","SEMIMAJOR_AXIS":"6917.813","ARG_OF_PERICENTER":"44.4663","REV_AT_EPOCH":"2314","DECAY_DATE":null,"OBJECT_ID":"2022-051AG","COUNTRY_CODE":"US","EPHEMERIS_TYPE":"0","BSTAR":"0.00002563000000","REF_FRAME":"TEME","RCS_SIZE":"LARGE","INCLINATION":"53.2169","OBJECT_TYPE":"PAYLOAD","SITE":"AFWTR","PERIOD":"95.436"},{"RA_OF_ASC_NODE":"331.3840","PERIAPSIS":"538.469","MEAN_MOTION":"15.08849437","GP_ID":"214605821","CENTER_NAME":"EARTH","MEAN_MOTION_DDOT":"0.0000000000000","APOAPSIS":"540.964","CLASSIFICATION_TYPE":"U","ELEMENT_SET_NO":"999","MEAN_ANOMALY":"307.3937","MEAN_ELEMENT_THEORY":"SGP4","EPOCH":"2022-10-09T20:32:53.640096","NORAD_CAT_ID":"52564","FILE":"3598879","ECCENTRICITY":"0.00018030","TIME_SYSTEM":"UTC","TLE_LINE2":"2 52564  53.2168 331.3840 0001803  52.7219 307.3937 15.08849437 23140","LAUNCH_DATE":"2022-05-13","MEAN_MOTION_DOT":"0.00003070","PERIOD":"95.437","SITE":"AFWTR","RCS_SIZE":"LARGE","INCLINATION":"53.2168","OBJECT_TYPE":"PAYLOAD","EPHEMERIS_TYPE":"0","BSTAR":"0.00021087000000","REF_FRAME":"TEME","OBJECT_ID":"2022-051AH","COUNTRY_CODE":"US","REV_AT_EPOCH":"2314","DECAY_DATE":null,"ARG_OF_PERICENTER":"52.7219","TLE_LINE1":"1 52564U 22051AH  22282.85617639  .00003070  00000-0  21087-3 0  9994","SEMIMAJOR_AXIS":"6917.852","OBJECT_NAME":"STARLINK-3959"},{"BSTAR":"0.00006037600000","EPHEMERIS_TYPE":"0","REF_FRAME":"TEME","RCS_SIZE":"LARGE","OBJECT_TYPE":"PAYLOAD","INCLINATION":"53.2189","SITE":"AFWTR","PERIOD":"95.437","SEMIMAJOR_AXIS":"6917.842","TLE_LINE1":"1 52565U 22051AJ  22282.80787625  .00000673  00000-0  60376-4 0  9994","OBJECT_NAME":"STARLINK-3911","ARG_OF_PERICENTER":"42.8987","REV_AT_EPOCH":"2334","DECAY_DATE":null,"OBJECT_ID":"2022-051AJ","COUNTRY_CODE":"US","MEAN_MOTION_DDOT":"0.0000000000000","CENTER_NAME":"EARTH","APOAPSIS":"541.048","GP_ID":"214605564","MEAN_MOTION":"15.08852645","PERIAPSIS":"538.365","RA_OF_ASC_NODE":"316.5895","TIME_SYSTEM":"UTC","FILE":"3598879","NORAD_CAT_ID":"52565","ECCENTRICITY":"0.00019390","LAUNCH_DATE":"2022-05-13","MEAN_MOTION_DOT":"0.00000673","TLE_LINE2":"2 52565  53.2189 316.5895 0001939  42.8987 317.2156 15.08852645 23341","EPOCH":"2022-10-09T19:23:20.508000","MEAN_ELEMENT_THEORY":"SGP4","MEAN_ANOMALY":"317.2156","ELEMENT_SET_NO":"999","CLASSIFICATION_TYPE":"U"}];
